{
  "norad_id": 60413,
  "name": "STARLINK-32178",
  "history": [
    {
      "epoch": "2026-03-28T14:12:21.199392",
      "apogee_km": 476.0570282538256,
      "perigee_km": 474.4012549940089,
      "latitude_deg": 39.11148907367971,
      "longitude_deg": -81.87644511996768,
      "semi_major_axis_km": 6853.366141623917,
      "eccentricity": 0.0001208,
      "inclination_deg": 53.1608,
      "raan_deg": 154.8554,
      "arg_perigee_deg": 79.7533,
      "mean_anomaly_deg": 280.3603,
      "mean_motion_rev_day": 15.30195287
    }
  ]
}