{"fetched_at":"2026-03-30T06:02:59Z","count":15439,"tles":[{"name":"STARLINK-32178","line1":"1 60413U 24141R   26087.59191203  .00001267  00000+0  54908-4 0  9994","line2":"2 60413  53.1608 154.8554 0001208  79.7533 280.3603 15.30195287 92415","category":"Starlink"}]}